STARLINK-36947          
1 68033U 26040U   26066.91668981 -.00911021  31193-3 -97649-3 0  9994
2 68033  97.2806  14.9249 0000864  96.4516 237.9921 16.10126512  2136
STARLINK-36939          
1 68034U 26040V   26066.91668981 -.00889325  30011-3 -92540-3 0  9999
2 68034  97.2805  14.9276 0000905  99.8762 241.0857 16.10578503  2137
STARLINK-36943          
1 68035U 26040W   26066.91668981 -.00866013  28829-3 -86200-3 0  9999
2 68035  97.2796  14.9337 0000750  98.5517 254.1911 16.11251651  2181
STARLINK-36906          
1 68036U 26040X   26066.91668981 -.00888327  29906-3 -93080-3 0  9993
2 68036  97.2803  14.9271 0000914 104.3686 235.1057 16.10471959  2132
STARLINK-36388          
1 68037U 26040Y   26066.91668981 -.00877634  29345-3 -90399-3 0  9990
2 68037  97.2803  14.9287 0000835 100.9871 242.0783 16.10732484  2080
STARLINK-36895          
1 68038U 26040Z   26066.91668981 -.00910807  31281-3 -96062-3 0  9996
2 68038  97.2800  14.9264 0000886 104.0872 233.7584 16.10374933  2138
STARLINK-36373          
1 68039U 26040AA  26066.91668981 -.00902097  30670-3 -96065-3 0  9993
2 68039  97.2802  14.9258 0000897  98.7783 237.1701 16.10225502  2086
STARLINK-36711          
1 68040U 26041A   26066.91668981 -.01425638  61210-3 -32498-2 0  9991
2 68040  53.1597  71.3388 0000469  89.2630 265.3900 15.96841418  2090
STARLINK-36825          
1 68041U 26041B   26066.91668981 -.01432626  61933-3 -32180-2 0  9997
2 68041  53.1593  71.3316 0000445  87.1532 270.7402 15.97110228  2096
STARLINK-36925          
1 68042U 26041C   26066.91668981 -.01433942  61955-3 -32436-2 0  9998
2 68042  53.1594  71.3350 0000379  90.8842 265.4833 15.96983459  2099
STARLINK-36902          
1 68043U 26041D   26066.91668981 -.01428526  61682-3 -31887-2 0  9997
2 68043  53.1597  71.3289 0000479  92.6088 266.6669 15.97223641  2098
STARLINK-36966          
1 68044U 26041E   26066.91668981 -.01426299  61672-3 -31385-2 0  9995
2 68044  53.1595  71.3221 0000484  85.4754 277.0819 15.97481595  2096
